[Satellite]
VERSION=1.1
NAME=ChubuSat-2
NICKNAME=ChubuSat-2
TLE1=1 41338U 16012B   22335.57167051  .00002083  00000-0  14818-3 0  9994
TLE2=2 41338  31.0043  39.3144 0012931  11.9468 348.1473 15.02095178372629
STATUS=0
